NORAD_CAT_ID,OBJECT_NAME,OBJECT_TYPE,EPOCH,MEAN_MOTION,ECCENTRICITY,INCLINATION,RA_OF_ASC_NODE,ARG_OF_PERICENTER,MEAN_ANOMALY,BSTAR,MEAN_MOTION_DOT,MEAN_MOTION_DDOT,TLE_LINE0,TLE_LINE1,TLE_LINE2,SEMIMAJOR_AXIS,PERIOD,APOGEE,PERIGEE,DECAYED
50804.0,STARLINK-3323,PAYLOAD,2023-09-13 08:07:53,15.08847157,0.000146,53.2156,276.8686,79.0436,281.072,0.00014023,1.945e-05,0.0,0 STARLINK-3323,1 50804U 22001B   23256.33881732  .00001945  00000-0  14023-3 0  9997,2 50804  53.2156 276.8686 0001460  79.0436 281.0720 15.08847157 94665,6917.859,95.437,540.734,538.714,0.0
50804.0,STARLINK-3323,PAYLOAD,2023-09-13 11:18:40,15.08848657,0.0001478,53.2144,276.2736,79.1188,280.997,0.00017502,2.499e-05,0.0,0 STARLINK-3323,1 50804U 22001B   23256.47129746  .00002499  00000-0  17502-3 0  9992,2 50804  53.2144 276.2736 0001478  79.1188 280.9970 15.08848657 93431,6917.854,95.437,540.741,538.696,0.0
50804.0,STARLINK-3323,PAYLOAD,2023-09-14 01:37:09,15.08831634,0.0001724,53.2143,273.5913,122.6629,237.453,-6.4391e-05,-1.312e-05,0.0,0 STARLINK-3323,1 50804U 22001B   23257.06746554 -.00001312  00000-0 -64391-4 0  9994,2 50804  53.2143 273.5913 0001724 122.6629 237.4530 15.08831634 94779,6917.906,95.438,540.964,538.578,0.0
50804.0,STARLINK-3323,PAYLOAD,2023-09-14 07:58:42,15.08826949,0.0001647,53.2157,272.4094,102.0626,258.0551,-0.00014506,-2.595e-05,0.0,0 STARLINK-3323,1 50804U 22001B   23257.33243091 -.00002595  00000-0 -14506-3 0  9998,2 50804  53.2157 272.4094 0001647 102.0626 258.0551 15.08826949 93566,6917.92,95.438,540.925,538.646,0.0
50804.0,STARLINK-3323,PAYLOAD,2023-09-14 17:31:01,15.08831661,0.0001612,53.2166,270.6243,106.2719,253.8451,-2.254e-05,-6.47e-06,0.0,0 STARLINK-3323,1 50804U 22001B   23257.72987445 -.00000647  00000-0 -22540-4 0  9993,2 50804  53.2166 270.6243 0001612 106.2719 253.8451 15.08831661 93629,6917.906,95.438,540.886,538.656,0.0
50804.0,STARLINK-3323,PAYLOAD,2023-09-15 06:14:05,15.08836381,0.0001416,53.2142,268.2438,96.0801,264.0352,5.436e-05,5.77e-06,0.0,0 STARLINK-3323,1 50804U 22001B   23258.25979152  .00000577  00000-0  54360-4 0  9993,2 50804  53.2142 268.2438 0001416  96.0801 264.0352 15.08836381 94957,6917.891,95.438,540.736,538.777,0.0
50804.0,STARLINK-3323,PAYLOAD,2023-09-16 07:40:16,15.08844092,0.0001537,53.2149,263.4869,103.1303,256.9861,0.00034673,5.235e-05,0.0,0 STARLINK-3323,1 50804U 22001B   23259.31963260  .00005235  00000-0  34673-3 0  9994,2 50804  53.2149 263.4869 0001537 103.1303 256.9861 15.08844092 95112,6917.868,95.437,540.796,538.67,0.0
50804.0,STARLINK-3323,PAYLOAD,2023-09-17 01:09:30,15.0884164,0.000163,53.2162,260.2174,100.8104,259.3071,9.32e-05,1.196e-05,0.0,0 STARLINK-3323,1 50804U 22001B   23260.04827380  .00001196  00000-0  93200-4 0  9992,2 50804  53.2162 260.2174 0001630 100.8104 259.3071 15.08841640 95226,6917.875,95.437,540.868,538.613,0.0
50804.0,STARLINK-3323,PAYLOAD,2023-09-17 09:06:26,15.08844296,0.0001587,53.2157,258.7295,97.8055,262.3118,9.1931e-05,1.176e-05,0.0,0 STARLINK-3323,1 50804U 22001B   23260.37947146  .00001176  00000-0  91931-4 0  9998,2 50804  53.2157 258.7295 0001587  97.8055 262.3118 15.08844296 94020,6917.867,95.437,540.83,538.634,0.0
50804.0,STARLINK-3323,PAYLOAD,2023-09-18 07:21:49,15.08850517,0.0001504,53.216,254.5662,91.4502,268.6662,8.6764e-05,1.094e-05,0.0,0 STARLINK-3323,1 50804U 22001B   23261.30682794  .00001094  00000-0  86764-4 0  9994,2 50804  53.2160 254.5662 0001504  91.4502 268.6662 15.08850517 95412,6917.848,95.437,540.754,538.673,0.0
50804.0,STARLINK-3323,PAYLOAD,2023-09-18 16:54:08,15.08845905,0.0001376,53.2153,252.7801,96.2373,263.8776,2.0546e-05,3.9e-07,0.0,0 STARLINK-3323,1 50804U 22001B   23261.70427002  .00000039  00000-0  20546-4 0  9991,2 50804  53.2153 252.7801 0001376  96.2373 263.8776 15.08845905 95479,6917.862,95.437,540.679,538.775,0.0
50804.0,STARLINK-3323,PAYLOAD,2023-09-19 16:44:56,15.08828218,0.0002266,53.2149,248.3204,89.6112,270.5139,-0.00013007,-2.357e-05,0.0,0 STARLINK-3323,1 50804U 22001B   23262.69787976 -.00002357  00000-0 -13007-3 0  9999,2 50804  53.2149 248.3204 0002266  89.6112 270.5139 15.08828218 95621,6917.916,95.438,541.349,538.214,0.0
50804.0,STARLINK-3323,PAYLOAD,2023-09-20 08:38:48,15.08828431,0.0001558,53.2148,245.3448,102.6382,257.4785,-8.587e-05,-1.654e-05,0.0,0 STARLINK-3323,1 50804U 22001B   23263.36028245 -.00001654  00000-0 -85870-4 0  9998,2 50804  53.2148 245.3448 0001558 102.6382 257.4785 15.08828431 94475,6917.916,95.438,540.859,538.703,0.0
50804.0,STARLINK-3323,PAYLOAD,2023-09-21 02:08:02,15.08837572,0.0001493,53.2156,242.0743,103.3185,256.7973,0.00012513,1.704e-05,0.0,0 STARLINK-3323,1 50804U 22001B   23264.08892143  .00001704  00000-0  12513-3 0  9991,2 50804  53.2156 242.0743 0001493 103.3185 256.7973 15.08837572 95831,6917.888,95.438,540.786,538.72,0.0
50804.0,STARLINK-3323,PAYLOAD,2023-09-21 08:29:35,15.08847297,0.0001657,53.2156,240.8846,104.789,255.3285,0.00019162,2.764e-05,0.0,0 STARLINK-3323,1 50804U 22001B   23264.35387812  .00002764  00000-0  19162-3 0  9997,2 50804  53.2156 240.8846 0001657 104.7890 255.3285 15.08847297 94623,6917.858,95.437,540.869,538.577,0.0
50804.0,STARLINK-3323,PAYLOAD,2023-09-22 01:58:49,15.08845954,0.0001629,53.2155,237.6134,105.538,254.5792,0.00034486,5.206e-05,0.0,0 STARLINK-3323,1 50804U 22001B   23265.08252149  .00005206  00000-0  34486-3 0  9992,2 50804  53.2155 237.6134 0001629 105.5380 254.5792 15.08845954 95980,6917.862,95.437,540.854,538.6,0.0
50804.0,STARLINK-3323,PAYLOAD,2023-09-22 08:20:22,15.08856941,0.0001512,53.2152,236.4249,87.3789,272.7376,0.00044916,6.871e-05,0.0,0 STARLINK-3323,1 50804U 22001B   23265.34747771  .00006871  00000-0  44916-3 0  9999,2 50804  53.2152 236.4249 0001512  87.3789 272.7376 15.08856941 94776,6917.829,95.436,540.74,538.648,0.0
50804.0,STARLINK-3323,PAYLOAD,2023-09-23 05:00:22,15.08857081,0.0001644,53.216,232.5616,97.0926,263.0253,0.00024653,3.639e-05,0.0,0 STARLINK-3323,1 50804U 22001B   23266.20859192  .00003639  00000-0  24653-3 0  9991,2 50804  53.2160 232.5616 0001644  97.0926 263.0253 15.08857081 96154,6917.828,95.436,540.83,538.556,0.0
50804.0,STARLINK-3323,PAYLOAD,2023-09-24 01:40:23,15.08841397,0.000171,53.2152,228.6959,105.3262,254.7919,-7.9986e-05,-1.561e-05,0.0,0 STARLINK-3323,1 50804U 22001B   23267.06971431 -.00001561  00000-0 -79986-4 0  9991,2 50804  53.2152 228.6959 0001710 105.3262 254.7919 15.08841397 96284,6917.876,95.437,540.924,538.558,0.0
50804.0,STARLINK-3323,PAYLOAD,2023-09-24 08:01:55,15.08843003,0.0001488,53.2156,227.5036,88.3053,271.8109,-3.3363e-05,-8.19e-06,0.0,0 STARLINK-3323,1 50804U 22001B   23267.33467441 -.00000819  00000-0 -33363-4 0  9996,2 50804  53.2156 227.5036 0001488  88.3053 271.8109 15.08843003 95075,6917.871,95.437,540.766,538.707,0.0
50804.0,STARLINK-3323,PAYLOAD,2023-09-25 03:06:33,15.08842365,0.0001436,53.2152,223.9343,89.7621,270.3535,-3.8453e-05,-9e-06,0.0,0 STARLINK-3323,1 50804U 22001B   23268.12955598 -.00000900  00000-0 -38453-4 0  9995,2 50804  53.2152 223.9343 0001436  89.7621 270.3535 15.08842365 96440,6917.873,95.437,540.732,538.745,0.0
50804.0,STARLINK-3323,PAYLOAD,2023-09-25 06:17:19,15.08852658,0.0001421,53.2155,223.3396,87.9566,272.1589,0.00013237,1.82e-05,0.0,0 STARLINK-3323,1 50804U 22001B   23268.26203124  .00001820  00000-0  13237-3 0  9993,2 50804  53.2155 223.3396 0001421  87.9566 272.1589 15.08852658 96464,6917.842,95.437,540.69,538.724,0.0
50804.0,STARLINK-3323,PAYLOAD,2023-09-25 14:14:15,15.0884949,0.0001432,53.2156,221.853,83.6029,276.5126,8.1719e-05,1.013e-05,0.0,0 STARLINK-3323,1 50804U 22001B   23268.59323221  .00001013  00000-0  81719-4 0  9995,2 50804  53.2156 221.8530 0001432  83.6029 276.5126 15.08849490 95269,6917.851,95.437,540.707,538.726,0.0
50804.0,STARLINK-3323,PAYLOAD,2023-09-26 02:57:20,15.08852692,0.0001384,53.2151,219.4758,77.7322,282.3825,0.0003275,4.93e-05,0.0,0 STARLINK-3323,1 50804U 22001B   23269.12315178  .00004930  00000-0  32750-3 0  9998,2 50804  53.2151 219.4758 0001384  77.7322 282.3825 15.08852692 96591,6917.842,95.437,540.664,538.749,0.0
50804.0,STARLINK-3323,PAYLOAD,2023-09-26 04:32:43,15.08857146,0.0001398,53.2152,219.1763,83.3392,276.7759,0.00040484,6.164e-05,0.0,0 STARLINK-3323,1 50804U 22001B   23269.18938856  .00006164  00000-0  40484-3 0  9992,2 50804  53.2152 219.1763 0001398  83.3392 276.7759 15.08857146 95355,6917.828,95.436,540.66,538.726,0.0
50804.0,STARLINK-3323,PAYLOAD,2023-09-27 02:48:07,15.08840925,0.0001415,53.216,215.0125,103.858,256.2569,-2.8791e-08,-2.88e-06,0.0,0 STARLINK-3323,1 50804U 22001B   23270.11675452 -.00000288  00000-0 -28791-7 0  9991,2 50804  53.2160 215.0125 0001415 103.8580 256.2569 15.08840925 96741,6917.878,95.437,540.721,538.764,0.0
50804.0,STARLINK-3323,PAYLOAD,2023-09-27 05:58:53,15.08845161,0.0001426,53.2154,214.4194,99.3822,260.7332,0.00011106,1.48e-05,0.0,0 STARLINK-3323,1 50804U 22001B   23270.24923354  .00001480  00000-0  11106-3 0  9993,2 50804  53.2154 214.4194 0001426  99.3822 260.7332 15.08845161 95512,6917.865,95.437,540.716,538.743,0.0
50804.0,STARLINK-3323,PAYLOAD,2023-09-27 13:55:50,15.08825333,0.0001656,53.2167,212.9303,99.1267,260.9913,-0.00020738,-3.586e-05,0.0,0 STARLINK-3323,1 50804U 22001B   23270.58044179 -.00003586  00000-0 -20738-3 0  9991,2 50804  53.2167 212.9303 0001656  99.1267 260.9913 15.08825333 96817,6917.925,95.438,540.936,538.645,0.0
50804.0,STARLINK-3323,PAYLOAD,2023-09-28 02:38:55,15.08825197,0.0001518,53.2161,210.5526,96.7699,263.3466,-1.1616e-06,-3.06e-06,0.0,0 STARLINK-3323,1 50804U 22001B   23271.11036551 -.00000306  00000-0 -11616-5 0  9990,2 50804  53.2161 210.5526 0001518  96.7699 263.3466 15.08825197 95649,6917.926,95.438,540.841,538.74,0.0
50804.0,STARLINK-3323,PAYLOAD,2023-09-28 23:18:56,15.08838045,0.0001563,53.2165,206.6857,112.8216,247.2941,0.00037471,5.68e-05,0.0,0 STARLINK-3323,1 50804U 22001B   23271.97149145  .00005680  00000-0  37471-3 0  9991,2 50804  53.2165 206.6857 0001563 112.8216 247.2941 15.08838045 97020,6917.886,95.438,540.833,538.67,0.0
